{
"type": "FeatureCollection",
"name": "counties",
"crs": { "type": "name", "properties": { "name": "urn:ogc:def:crs:OGC:1.3:CRS84" } },
"features": [
{ "type": "Feature", "properties": { "fips": "48085", "name": "Collin" }, "geometry": { "type": "Polygon", "coordinates": [ [ [ -96.844120439024593, 32.987436274330022 ], [ -96.839686082643098, 33.196361453801948 ], [ -96.834108474066525, 33.40549665647751 ], [ -96.625273842052863, 33.400639219933247 ], [ -96.386439199219907, 33.39807037105659 ], [ -96.384603649999463, 33.397824964088343 ], [ -96.384496139012541, 33.342396586035157 ], [ -96.383877839794621, 33.341450799701427 ], [ -96.295414581889347, 33.351934499574412 ], [ -96.295057400511183, 33.216105619414805 ], [ -96.297228500034677, 32.981753288246118 ], [ -96.513810099171764, 32.982852378783036 ], [ -96.844120439024593, 32.987436274330022 ] ] ] } },
{ "type": "Feature", "properties": { "fips": "48113", "name": "Dallas" }, "geometry": { "type": "Polygon", "coordinates": [ [ [ -97.038683427727179, 32.548667291938145 ], [ -97.031005493059979, 32.989689696782968 ], [ -96.517012604853889, 32.982860636604897 ], [ -96.523119564017648, 32.545215336883253 ], [ -97.038683427727179, 32.548667291938145 ] ] ] } },
{ "type": "Feature", "properties": { "fips": "48121", "name": "Denton" }, "geometry": { "type": "Polygon", "coordinates": [ [ [ -97.398457376746023, 32.99173332146929 ], [ -97.390714273534172, 33.250107440593332 ], [ -97.387737784344708, 33.303399443857096 ], [ -97.383093475199956, 33.430448643538185 ], [ -97.129349610632033, 33.422679151175032 ], [ -96.939442325759543, 33.416271424817388 ], [ -96.876978750628837, 33.41354657292564 ], [ -96.875547780022373, 33.414098346285485 ], [ -96.84109952867864, 33.413375765292983 ], [ -96.84086418642427, 33.405992633957794 ], [ -96.834110763448507, 33.40547026095205 ], [ -96.839686165542261, 33.19635787651471 ], [ -96.844123524512881, 32.987436318552227 ], [ -97.061798301761058, 32.989903985281721 ], [ -97.398457376746023, 32.99173332146929 ] ] ] } },
{ "type": "Feature", "properties": { "fips": "48139", "name": "Ellis" }, "geometry": { "type": "Polygon", "coordinates": [ [ [ -97.087052424944986, 32.549261654882351 ], [ -96.976483418020678, 32.548013975591807 ], [ -96.529413219247957, 32.545275736460432 ], [ -96.528951603703675, 32.540092511425236 ], [ -96.527273781240211, 32.539563493022257 ], [ -96.525259270829594, 32.541515586756894 ], [ -96.523766975655946, 32.541167161633375 ], [ -96.52428481141834, 32.536976558196059 ], [ -96.520250052872029, 32.535159827472135 ], [ -96.519802792528267, 32.531846433607207 ], [ -96.515686026699029, 32.532091803968569 ], [ -96.514435682179766, 32.535992826882627 ], [ -96.512192810207139, 32.536178467550215 ], [ -96.507230694894744, 32.532410580957638 ], [ -96.50791994620495, 32.531023112062776 ], [ -96.510250964976592, 32.530207673534036 ], [ -96.509508891645297, 32.526762562491896 ], [ -96.506360111915754, 32.525622936847462 ], [ -96.504620715341844, 32.527158654054766 ], [ -96.502991736028122, 32.525990764081335 ], [ -96.505880039419068, 32.516848357756608 ], [ -96.503366095370879, 32.515346180611594 ], [ -96.50154948820294, 32.512927824574462 ], [ -96.501855319386735, 32.511895815698743 ], [ -96.504032451283237, 32.511638281163187 ], [ -96.50693014564358, 32.513142385026136 ], [ -96.508880049922965, 32.511357246398717 ], [ -96.511183303311071, 32.511256626034893 ], [ -96.511773668981249, 32.51022252861506 ], [ -96.508917367917462, 32.502080582688492 ], [ -96.504682759526375, 32.501749224444275 ], [ -96.501105800634079, 32.497083304382642 ], [ -96.500572705302005, 32.494759163846268 ], [ -96.501475745325507, 32.493872194539669 ], [ -96.503137270304066, 32.493708159209632 ], [ -96.506100562760608, 32.496963978866887 ], [ -96.508533502843633, 32.494879179196182 ], [ -96.508809091768939, 32.492232406601318 ], [ -96.507714627637924, 32.490885532261913 ], [ -96.505658102516435, 32.489936997702543 ], [ -96.502623882029994, 32.489837516756438 ], [ -96.501845760634723, 32.488207297434151 ], [ -96.50321223537199, 32.486955372247238 ], [ -96.50632845589115, 32.486336917188957 ], [ -96.509871697962382, 32.48360397728981 ], [ -96.510306419461472, 32.482316715896118 ], [ -96.504684210737878, 32.477940284079175 ], [ -96.501136126219961, 32.470011120667635 ], [ -96.497319035129067, 32.468927657295445 ], [ -96.492828664906781, 32.46623238561186 ], [ -96.494882659976767, 32.461371881971623 ], [ -96.494766421871745, 32.459722110371963 ], [ -96.493287355487823, 32.45789073263726 ], [ -96.493461955740173, 32.45657715193807 ], [ -96.49626282611014, 32.455258589855966 ], [ -96.496391169670261, 32.45390428756528 ], [ -96.488175963718987, 32.451302230404117 ], [ -96.485868821095934, 32.451958600543428 ], [ -96.484336020408719, 32.451481193135677 ], [ -96.483172522003471, 32.446434074212249 ], [ -96.484106822846769, 32.443561017342972 ], [ -96.480969519141311, 32.439927817220777 ], [ -96.479472812780642, 32.436403635941033 ], [ -96.477181818513074, 32.434210985034092 ], [ -96.470978632120818, 32.43181614871456 ], [ -96.462789128375647, 32.426636383701016 ], [ -96.456920513297874, 32.424344055743411 ], [ -96.453588228698962, 32.423864202756576 ], [ -96.450295874889008, 32.424574821480164 ], [ -96.449245399275767, 32.422079066455844 ], [ -96.440911319217619, 32.416174107529727 ], [ -96.438841240839722, 32.412649679256276 ], [ -96.434355779478665, 32.411084662274796 ], [ -96.435233993051483, 32.408986597426505 ], [ -96.437632129087646, 32.407298668503941 ], [ -96.436359365685831, 32.40421342597277 ], [ -96.439688827051441, 32.40041378271858 ], [ -96.437384759011763, 32.393637856233575 ], [ -96.4354364818509, 32.391857405478632 ], [ -96.43447838041719, 32.389203865331886 ], [ -96.435863962919214, 32.386047611281086 ], [ -96.438891140030762, 32.383223307125604 ], [ -96.437180939444858, 32.378962159316018 ], [ -96.439095767260383, 32.378093643392774 ], [ -96.44163362713013, 32.378844723646566 ], [ -96.444705757693626, 32.378035055217069 ], [ -96.444882687880167, 32.375563843698657 ], [ -96.447205312547553, 32.374813462080034 ], [ -96.447728093025901, 32.373810559953938 ], [ -96.44697714150881, 32.372252296689481 ], [ -96.444182543343459, 32.371034281814438 ], [ -96.443846538365165, 32.369534632981093 ], [ -96.446477527478834, 32.368651186995905 ], [ -96.447715825780151, 32.366691069665265 ], [ -96.449801546135419, 32.366224340186747 ], [ -96.450388153758027, 32.363677712375647 ], [ -96.454292757142284, 32.361619976381284 ], [ -96.452345434421332, 32.359411573145032 ], [ -96.453243986032334, 32.356847669598288 ], [ -96.450909419139023, 32.355042138240933 ], [ -96.448685190311139, 32.355024637374768 ], [ -96.448438567711605, 32.3544948824741 ], [ -96.449313651498827, 32.350958013454495 ], [ -96.450526246466964, 32.350938234391677 ], [ -96.452792851964858, 32.352713564252852 ], [ -96.45437520498939, 32.351984528095265 ], [ -96.453777605781326, 32.348708630461111 ], [ -96.452021455857164, 32.347638039722995 ], [ -96.451822650068408, 32.345069531819014 ], [ -96.449826967809841, 32.344299775103742 ], [ -96.447127390098856, 32.345751614363408 ], [ -96.443746822522797, 32.346335459891478 ], [ -96.436294439308341, 32.345412245544608 ], [ -96.436769380696148, 32.341399390084909 ], [ -96.430269360293224, 32.338893733161548 ], [ -96.431315073873833, 32.336783056120666 ], [ -96.430994372498148, 32.333154076011844 ], [ -96.430035650666042, 32.332267418021807 ], [ -96.426550289607931, 32.334384296695305 ], [ -96.425888649696574, 32.336193778517845 ], [ -96.423786682356464, 32.335337693562067 ], [ -96.423104059597975, 32.333128903070794 ], [ -96.421566746465402, 32.332381699298089 ], [ -96.420073562533815, 32.333137695720779 ], [ -96.420377289627126, 32.334847193703922 ], [ -96.417496044423189, 32.33552737205266 ], [ -96.415583069871232, 32.333225986815499 ], [ -96.411649042594121, 32.332543606639845 ], [ -96.408098240178631, 32.328519374429249 ], [ -96.405568555040134, 32.327704642804377 ], [ -96.403367311418776, 32.328666548796775 ], [ -96.400420463850807, 32.328820451497982 ], [ -96.394233113831575, 32.332682746651379 ], [ -96.39080505190185, 32.333858710072192 ], [ -96.385201750566068, 32.331957990999875 ], [ -96.382912112978673, 32.328929482606931 ], [ -96.395140770717973, 32.323611722766593 ], [ -96.464967151139774, 32.287117934943637 ], [ -96.492488317781408, 32.273843786970446 ], [ -96.625273506227899, 32.206579381248851 ], [ -96.749872947403006, 32.146491554911307 ], [ -96.940655444289291, 32.052088786700118 ], [ -97.087041228116931, 32.266824396168076 ], [ -97.087052424944986, 32.549261654882351 ] ] ] } },
{ "type": "Feature", "properties": { "fips": "48257", "name": "Kaufman" }, "geometry": { "type": "Polygon", "coordinates": [ [ [ -96.529410037416341, 32.545275649009561 ], [ -96.524213901779532, 32.545247069884567 ], [ -96.523115229113131, 32.546361095116616 ], [ -96.518968488468033, 32.813614713390386 ], [ -96.298584643775101, 32.814186633503887 ], [ -96.297373791570692, 32.815311384600498 ], [ -96.29732041729477, 32.841721639530157 ], [ -96.076802340730268, 32.83848778974027 ], [ -96.075537074681307, 32.506903177317469 ], [ -96.075900551400792, 32.357506314034765 ], [ -96.194258147666105, 32.358185938399465 ], [ -96.195514047746116, 32.357487385739653 ], [ -96.196171800092486, 32.354752273829014 ], [ -96.231491934207369, 32.354709262452964 ], [ -96.249737382660683, 32.354994246979039 ], [ -96.249768892005335, 32.35790070504283 ], [ -96.251076775064362, 32.358713557051352 ], [ -96.452370299317707, 32.358660282259443 ], [ -96.454582131905767, 32.361513743921769 ], [ -96.450118849723893, 32.364343674303747 ], [ -96.45088362195203, 32.365956741131995 ], [ -96.45391445518348, 32.367262160874986 ], [ -96.452233740879947, 32.370778472465183 ], [ -96.451690842682765, 32.371160419484539 ], [ -96.450176577521603, 32.370137226480438 ], [ -96.451180893483468, 32.368460560581802 ], [ -96.448855227346399, 32.366514406931522 ], [ -96.447077174815973, 32.367716756486729 ], [ -96.44843091343445, 32.370573049294542 ], [ -96.447769316572433, 32.370840003916257 ], [ -96.446037006981229, 32.368998799236067 ], [ -96.444521215339691, 32.369093809295904 ], [ -96.443824173073253, 32.369912965766687 ], [ -96.444441885524284, 32.371151623734939 ], [ -96.447069585095306, 32.371711302329096 ], [ -96.448807353089606, 32.375799294752795 ], [ -96.448007182156346, 32.376149474430264 ], [ -96.445781545829135, 32.375278862187905 ], [ -96.444380304159935, 32.378349883274716 ], [ -96.441788162641913, 32.378876183562461 ], [ -96.438931302981459, 32.378133141191888 ], [ -96.437355154368689, 32.379055944564449 ], [ -96.438952420455763, 32.383293648599064 ], [ -96.435752233882269, 32.386661728885834 ], [ -96.438889156362308, 32.389134815489612 ], [ -96.438003251498088, 32.389615537469815 ], [ -96.435786184393493, 32.388932430305431 ], [ -96.43483960794984, 32.390133674552644 ], [ -96.435546745274578, 32.391998545968377 ], [ -96.437305632208194, 32.39335576410496 ], [ -96.438362655374874, 32.398043451505337 ], [ -96.439824098070972, 32.400133228121085 ], [ -96.436335714035778, 32.404374528982515 ], [ -96.437719333792572, 32.407486306661326 ], [ -96.435277870645876, 32.408954201499711 ], [ -96.43449774220062, 32.410829296752716 ], [ -96.43876804340735, 32.412562892975345 ], [ -96.440931227584386, 32.41616063922374 ], [ -96.449313783328563, 32.422102764208788 ], [ -96.450327267255958, 32.424264267042119 ], [ -96.456817450860058, 32.424291180470227 ], [ -96.462769720271581, 32.426613668955497 ], [ -96.470980591258467, 32.431813517137719 ], [ -96.477000141654344, 32.434078054086115 ], [ -96.479479963280156, 32.436399659446444 ], [ -96.481042576290506, 32.440032564857887 ], [ -96.484210547037037, 32.443740303515362 ], [ -96.483182582253377, 32.446488609508492 ], [ -96.48356813492515, 32.450318320524552 ], [ -96.484533761583464, 32.451605962277569 ], [ -96.485997796802707, 32.451919899390383 ], [ -96.487853593975814, 32.451086345301142 ], [ -96.493253931847605, 32.453102739715227 ], [ -96.498166400348978, 32.453408870422699 ], [ -96.497287841936611, 32.454928843425868 ], [ -96.493400774733345, 32.456838360680919 ], [ -96.494939482024648, 32.460754960424161 ], [ -96.492769313342933, 32.465999850212604 ], [ -96.496235782173002, 32.468460421050885 ], [ -96.501198511777744, 32.470048197293302 ], [ -96.504660408449425, 32.477894106812315 ], [ -96.51021364583427, 32.481926561580586 ], [ -96.509984776871491, 32.483541353775088 ], [ -96.506263260386689, 32.486392952796322 ], [ -96.502978669213334, 32.48705782628393 ], [ -96.501872340485235, 32.488211787721873 ], [ -96.502520815502123, 32.489734050112823 ], [ -96.506246615931929, 32.490115707753112 ], [ -96.508746271955673, 32.491931672247325 ], [ -96.508717526632168, 32.494649532909179 ], [ -96.506699767899022, 32.497556060356061 ], [ -96.504294886949396, 32.497919705415946 ], [ -96.504713666221534, 32.495729831188072 ], [ -96.50298708537737, 32.493710712038201 ], [ -96.501046071007067, 32.494140756884555 ], [ -96.500512539456196, 32.495504165539899 ], [ -96.501456521138891, 32.49753023790305 ], [ -96.503473387000071, 32.498407205856275 ], [ -96.504732144648443, 32.501774432369707 ], [ -96.506159029902165, 32.502191932910556 ], [ -96.508353386159982, 32.501172356817314 ], [ -96.508930454790615, 32.501641671920552 ], [ -96.511318538359717, 32.509261838597638 ], [ -96.51328484122989, 32.51214315804684 ], [ -96.512451274576961, 32.513331472190416 ], [ -96.509672128843206, 32.5113455657362 ], [ -96.506457210293632, 32.51322078401234 ], [ -96.503965605062149, 32.511631006920602 ], [ -96.501812996373843, 32.51203253765523 ], [ -96.501675237960526, 32.513152795351303 ], [ -96.503457148992609, 32.515381040100131 ], [ -96.507071034770718, 32.516400857555865 ], [ -96.507593218110003, 32.517453988867501 ], [ -96.505124357837218, 32.518637480735023 ], [ -96.504173951022764, 32.524303184091345 ], [ -96.509624720919803, 32.526820462186329 ], [ -96.510361256673136, 32.530333544005906 ], [ -96.507586841228829, 32.531350865129085 ], [ -96.507749838042614, 32.533169605862355 ], [ -96.513212348487528, 32.536362008889363 ], [ -96.514342723739901, 32.535653598963833 ], [ -96.515511747537147, 32.532021176562644 ], [ -96.519719252495477, 32.531766857277098 ], [ -96.520535951422218, 32.535062152024338 ], [ -96.524335645481614, 32.537018345568534 ], [ -96.524425226707407, 32.539964663143827 ], [ -96.525618286980588, 32.540329225321287 ], [ -96.527284600850678, 32.539515006008784 ], [ -96.529025644422717, 32.540079930139157 ], [ -96.529410037416341, 32.545275649009561 ] ] ] } },
{ "type": "Feature", "properties": { "fips": "48397", "name": "Rockwall" }, "geometry": { "type": "Polygon", "coordinates": [ [ [ -96.518965446166575, 32.813702287020305 ], [ -96.517009334958971, 32.982860641035877 ], [ -96.297228411548602, 32.981750776261741 ], [ -96.297377539608391, 32.814186294906897 ], [ -96.488630227838897, 32.813229081780676 ], [ -96.518965446166575, 32.813702287020305 ] ] ] } },
{ "type": "Feature", "properties": { "fips": "48439", "name": "Tarrant" }, "geometry": { "type": "Polygon", "coordinates": [ [ [ -97.55058042954343, 32.555392317863308 ], [ -97.547499028522594, 32.840423789829828 ], [ -97.544179469875615, 32.994175702366178 ], [ -97.414864806518338, 32.992029397822279 ], [ -97.399728110980007, 32.990935388699938 ], [ -97.398426177279163, 32.991731790195693 ], [ -97.031008592437757, 32.989689696943294 ], [ -97.038686528930882, 32.548667326122604 ], [ -97.479604618481787, 32.555191152109948 ], [ -97.55058042954343, 32.555392317863308 ] ] ] } }
]
}
