{"type": "FeatureCollection", "features": [{"type": "Feature", "geometry": {"type": "Point", "coordinates": [-96.838714, 32.823795]}, "properties": {"name": "5908 Maple Highline", "address": "5908 Maple Ave", "owner": "Dallas Public Facility Corporation", "total_units": 74, "year_built": 2023, "acquired": null, "lihtc": false, "units_est": false}}, {"type": "Feature", "geometry": {"type": "Point", "coordinates": [-96.825975, 33.008025]}, "properties": {"name": "Oaks Of North Dallas Apartments", "address": "4701 Haverwood LN", "owner": "Cameron County Housing Finance Corporation The", "total_units": 168, "year_built": 1983, "acquired": 2024, "lihtc": false, "units_est": false}}, {"type": "Feature", "geometry": {"type": "Point", "coordinates": [-96.851282, 33.00525]}, "properties": {"name": "3737 Timberglen Dr", "address": "3737 Timberglen Dr", "owner": "Pecos Housing Finance Corporation", "total_units": 252, "year_built": 1984, "acquired": null, "lihtc": false, "units_est": true}}, {"type": "Feature", "geometry": {"type": "Point", "coordinates": [-96.867001, 32.873975]}, "properties": {"name": "Spanish Pueblo", "address": "9727 Dale Crest Dr", "owner": "La Villa Housing Finance", "total_units": 128, "year_built": 1972, "acquired": null, "lihtc": false, "units_est": false}}, {"type": "Feature", "geometry": {"type": "Point", "coordinates": [-96.82381, 33.00638]}, "properties": {"name": "4804 Haverwood Apartments", "address": "4804 Haverwood LN", "owner": "Cameron County Housing Finance Corporation The", "total_units": 180, "year_built": 1984, "acquired": 2024, "lihtc": false, "units_est": false}}, {"type": "Feature", "geometry": {"type": "Point", "coordinates": [-96.865659, 32.872085]}, "properties": {"name": "Chase Place", "address": "9825 Webbs Chapel Rd", "owner": "La Villa Housing Finance Corp", "total_units": 81, "year_built": 1964, "acquired": null, "lihtc": false, "units_est": false}}, {"type": "Feature", "geometry": {"type": "Point", "coordinates": [-96.838875, 32.822945]}, "properties": {"name": "5907 Maple Highline", "address": "5907 Maple Ave", "owner": "Dallas Public Facility Corporation", "total_units": 56, "year_built": 2023, "acquired": null, "lihtc": false, "units_est": false}}, {"type": "Feature", "geometry": {"type": "Point", "coordinates": [-96.867169, 32.872285]}, "properties": {"name": "Courtney Place (ecu)", "address": "3211 Chapel Creek Dr", "owner": "La Villa Housing Finance", "total_units": 115, "year_built": 1966, "acquired": null, "lihtc": false, "units_est": false}}, {"type": "Feature", "geometry": {"type": "Point", "coordinates": [-96.852296, 32.860855]}, "properties": {"name": "Bluffview Highline Apartments", "address": "3842 W Northwest Hwy", "owner": "Dallas Public Facility Co", "total_units": 175, "year_built": 2023, "acquired": null, "lihtc": false, "units_est": false}}, {"type": "Feature", "geometry": {"type": "Point", "coordinates": [-96.82554, 32.822175]}, "properties": {"name": "Marthas Vineyard Place", "address": "3110 Crestview Dr", "owner": "Dallas City Of Housing Finance Corp", "total_units": 101, "year_built": 2017, "acquired": null, "lihtc": false, "units_est": false}}, {"type": "Feature", "geometry": {"type": "Point", "coordinates": [-96.885333, 32.89732]}, "properties": {"name": "(nc 60%) The Standard At Royal Lane", "address": "2737 Royal Ln", "owner": "Dallas Public Facility Corp", "total_units": 300, "year_built": 2023, "acquired": null, "lihtc": false, "units_est": false}}, {"type": "Feature", "geometry": {"type": "Point", "coordinates": [-96.825932, 33.010325]}, "properties": {"name": "Oaks Of North Dallas Apartments", "address": "5075 Pear Ridge DR", "owner": "Cameron County Housing Finance Corporation The", "total_units": 144, "year_built": 1983, "acquired": 2024, "lihtc": false, "units_est": false}}, {"type": "Feature", "geometry": {"type": "Point", "coordinates": [-96.825948, 33.009235]}, "properties": {"name": "Oaks Of North Dallas Apartments", "address": "5055 Pear Ridge DR", "owner": "Cameron County Housing Finance Corporation The", "total_units": 144, "year_built": 1983, "acquired": 2024, "lihtc": false, "units_est": false}}, {"type": "Feature", "geometry": {"type": "Point", "coordinates": [-96.808981, 32.945425]}, "properties": {"name": "Hyde Park (ecu)", "address": "5711 Preston Oaks Rd", "owner": "La Villa Housing Finance Corp", "total_units": 326, "year_built": 1995, "acquired": null, "lihtc": false, "units_est": false}}, {"type": "Feature", "geometry": {"type": "Point", "coordinates": [-96.853146, 32.82315]}, "properties": {"name": "Providence Mockingbird Towers", "address": "1893 W Mockingbird Ln", "owner": "City Of Dallas Housing Finance Corp", "total_units": 250, "year_built": 1973, "acquired": null, "lihtc": false, "units_est": false}}, {"type": "Feature", "geometry": {"type": "Point", "coordinates": [-96.72105, 32.9105]}, "properties": {"name": "The Baxter", "address": "9737 Forest Ln", "owner": "Pecos Housing Finance Corp", "total_units": 239, "year_built": 1983, "acquired": null, "lihtc": false, "units_est": false}}, {"type": "Feature", "geometry": {"type": "Point", "coordinates": [-96.722251, 32.913295]}, "properties": {"name": "The Bentley", "address": "12121 Audelia Rd", "owner": "Pecos Housing Finance Corp", "total_units": 284, "year_built": 1984, "acquired": null, "lihtc": false, "units_est": false}}, {"type": "Feature", "geometry": {"type": "Point", "coordinates": [-96.719496, 32.913235]}, "properties": {"name": "The Beckham", "address": "12111 Audelia Rd", "owner": "Pecos Housing Finance Corp", "total_units": 260, "year_built": 1984, "acquired": null, "lihtc": false, "units_est": false}}, {"type": "Feature", "geometry": {"type": "Point", "coordinates": [-96.719779, 32.911725]}, "properties": {"name": "The Bernard", "address": "11991 Audelia Rd", "owner": "Pecos Housing Finance Corp", "total_units": 314, "year_built": 1983, "acquired": null, "lihtc": false, "units_est": false}}, {"type": "Feature", "geometry": {"type": "Point", "coordinates": [-96.768958, 32.993595]}, "properties": {"name": "Palencia Apartments", "address": "17817 Coit RD", "owner": "Maverick County Housing Finance Corporation", "total_units": 281, "year_built": 1995, "acquired": 2025, "lihtc": false, "units_est": false}}, {"type": "Feature", "geometry": {"type": "Point", "coordinates": [-96.71733, 32.924275]}, "properties": {"name": "Tides Of Lawler East", "address": "13030 Audelia Rd", "owner": "Pecos Housing Finance", "total_units": 16, "year_built": 1981, "acquired": null, "lihtc": false, "units_est": false}}, {"type": "Feature", "geometry": {"type": "Point", "coordinates": [-96.689884, 32.84567]}, "properties": {"name": "The Hayden 10% Complete", "address": "10715 Garland Rd", "owner": "Dallas Public Facility", "total_units": 288, "year_built": 2025, "acquired": null, "lihtc": false, "units_est": false}}, {"type": "Feature", "geometry": {"type": "Point", "coordinates": [-96.772045, 32.987165]}, "properties": {"name": "The Junction At 7760", "address": "7760 Mccallum BLVD", "owner": "Pecos Housing Finance Corporation", "total_units": 297, "year_built": 1988, "acquired": 2025, "lihtc": false, "units_est": false}}, {"type": "Feature", "geometry": {"type": "Point", "coordinates": [-96.831405, 32.74785]}, "properties": {"name": "South Building", "address": "524 W 8th St", "owner": "Dallas Public Facility Corp", "total_units": 13, "year_built": 2024, "acquired": null, "lihtc": false, "units_est": false}}, {"type": "Feature", "geometry": {"type": "Point", "coordinates": [-96.830852, 32.748345]}, "properties": {"name": "North Building", "address": "515 W 8th St", "owner": "Dallas Public Facility Corp", "total_units": 12, "year_built": 2024, "acquired": null, "lihtc": false, "units_est": false}}, {"type": "Feature", "geometry": {"type": "Point", "coordinates": [-96.812295, 32.754405]}, "properties": {"name": "Burnett Lofts @ Bishop Ridge", "address": "512 N Ewing Ave", "owner": "Dallas Public Facility Corp", "total_units": 86, "year_built": 2024, "acquired": null, "lihtc": false, "units_est": false}}, {"type": "Feature", "geometry": {"type": "Point", "coordinates": [-96.813097, 32.753315]}, "properties": {"name": "Apartments", "address": "405 N Ewing Ave", "owner": "Dallas Public Facility Corporation", "total_units": 75, "year_built": 2024, "acquired": null, "lihtc": false, "units_est": false}}, {"type": "Feature", "geometry": {"type": "Point", "coordinates": [-96.872897, 32.65634]}, "properties": {"name": "Park At Cliffcreek-txa1996190", "address": "7310 Marvin D Love Fwy", "owner": "Dallas Housing Finance Corporation", "total_units": 280, "year_built": 1996, "acquired": null, "lihtc": false, "units_est": false}}, {"type": "Feature", "geometry": {"type": "Point", "coordinates": [-96.833663, 32.697415]}, "properties": {"name": "Fawn Ridge Village East (ecu)", "address": "630 Bow Arrow Dr", "owner": "Villa Housing Finance", "total_units": 48, "year_built": 1969, "acquired": null, "lihtc": false, "units_est": false}}, {"type": "Feature", "geometry": {"type": "Point", "coordinates": [-96.792912, 32.787035]}, "properties": {"name": "Galbraith Exempt", "address": "2400 Bryan St", "owner": "Dallas City Of Housing Finance Corp", "total_units": 217, "year_built": 2020, "acquired": null, "lihtc": false, "units_est": false}}, {"type": "Feature", "geometry": {"type": "Point", "coordinates": [-96.83055, 32.74785]}, "properties": {"name": "South Apartments", "address": "504 W 8th St", "owner": "Dallas Public Facility Corp", "total_units": 11, "year_built": 2024, "acquired": null, "lihtc": false, "units_est": false}}, {"type": "Feature", "geometry": {"type": "Point", "coordinates": [-96.83072, 32.74785]}, "properties": {"name": "South Apartments", "address": "508 W 8th St", "owner": "Dallas Public Facility Corp", "total_units": 13, "year_built": 2024, "acquired": null, "lihtc": false, "units_est": false}}, {"type": "Feature", "geometry": {"type": "Point", "coordinates": [-96.842483, 32.77746]}, "properties": {"name": "Apartments", "address": "2901 Borger St", "owner": "Dallas Public Facility Corp", "total_units": 176, "year_built": 2024, "acquired": null, "lihtc": false, "units_est": false}}, {"type": "Feature", "geometry": {"type": "Point", "coordinates": [-96.83159, 32.74785]}, "properties": {"name": "South Building", "address": "528 W 8th St", "owner": "Dallas Public Facility Corp", "total_units": 12, "year_built": 2024, "acquired": null, "lihtc": false, "units_est": false}}, {"type": "Feature", "geometry": {"type": "Point", "coordinates": [-96.956311, 32.66685]}, "properties": {"name": "Cedar Lake Apts", "address": "7455 W Camp Wisdom Rd", "owner": "Pecos Housing Finance", "total_units": 196, "year_built": 2022, "acquired": null, "lihtc": false, "units_est": false}}, {"type": "Feature", "geometry": {"type": "Point", "coordinates": [-96.82193, 32.76827]}, "properties": {"name": "Banyan Flats", "address": "2022 N Beckley Ave", "owner": "Dallas Public Facility", "total_units": 289, "year_built": 2023, "acquired": null, "lihtc": false, "units_est": false}}, {"type": "Feature", "geometry": {"type": "Point", "coordinates": [-96.83121, 32.748345]}, "properties": {"name": "North Building", "address": "521 W 8th St", "owner": "Dallas Public Facility Corp", "total_units": 12, "year_built": 2024, "acquired": null, "lihtc": false, "units_est": false}}, {"type": "Feature", "geometry": {"type": "Point", "coordinates": [-96.835225, 32.696725]}, "properties": {"name": "Fawn Ridge Village East (ecu)", "address": "718 Bow Arrow Dr", "owner": "Villa Housing Finance", "total_units": 32, "year_built": 1969, "acquired": null, "lihtc": false, "units_est": false}}, {"type": "Feature", "geometry": {"type": "Point", "coordinates": [-96.797676, 32.73839]}, "properties": {"name": "The Finch Apartment Homes", "address": "1710 Morrell Ave", "owner": "Dallas Public Facility Corp", "total_units": 153, "year_built": 2023, "acquired": null, "lihtc": false, "units_est": false}}, {"type": "Feature", "geometry": {"type": "Point", "coordinates": [-96.831035, 32.74785]}, "properties": {"name": "South Apartments", "address": "516 W 8th St", "owner": "Dallas Public Facility Corp", "total_units": 13, "year_built": 2024, "acquired": null, "lihtc": false, "units_est": false}}, {"type": "Feature", "geometry": {"type": "Point", "coordinates": [-96.830388, 32.74785]}, "properties": {"name": "South Apartments", "address": "502 W 8th St", "owner": "Dallas Public Facility Corp", "total_units": 12, "year_built": 2024, "acquired": null, "lihtc": false, "units_est": false}}, {"type": "Feature", "geometry": {"type": "Point", "coordinates": [-96.831755, 32.74835]}, "properties": {"name": "South Building", "address": "533 W 8th St", "owner": "Dallas Public Facility Corp", "total_units": 38, "year_built": 2024, "acquired": null, "lihtc": false, "units_est": false}}, {"type": "Feature", "geometry": {"type": "Point", "coordinates": [-96.831758, 32.74785]}, "properties": {"name": "South Apartmnets", "address": "532 W 8th St", "owner": "Dallas Public Facility Corp", "total_units": 13, "year_built": 2024, "acquired": null, "lihtc": false, "units_est": false}}, {"type": "Feature", "geometry": {"type": "Point", "coordinates": [-96.83053, 32.748345]}, "properties": {"name": "North Building", "address": "505 W 8th St", "owner": "Dallas Public Facility Corp", "total_units": 123, "year_built": 2024, "acquired": null, "lihtc": false, "units_est": false}}, {"type": "Feature", "geometry": {"type": "Point", "coordinates": [-96.831392, 32.748345]}, "properties": {"name": "North Building", "address": "525 W 8th St", "owner": "Dallas Public Facility Corp", "total_units": 12, "year_built": 2024, "acquired": null, "lihtc": false, "units_est": false}}, {"type": "Feature", "geometry": {"type": "Point", "coordinates": [-96.960673, 32.674855]}, "properties": {"name": "Ascent At Mountain Creek", "address": "4868 S Merrifield Rd", "owner": "Dallas Public Facility Corporation", "total_units": 324, "year_built": 2023, "acquired": null, "lihtc": false, "units_est": false}}, {"type": "Feature", "geometry": {"type": "Point", "coordinates": [-96.83088, 32.74785]}, "properties": {"name": "South Apartments", "address": "512 W 8th St", "owner": "Dallas Public Facility Corp", "total_units": 10, "year_built": 2024, "acquired": null, "lihtc": false, "units_est": false}}, {"type": "Feature", "geometry": {"type": "Point", "coordinates": [-96.800035, 32.74602]}, "properties": {"name": "Sphinx At Fiji Lofts", "address": "303 Ave A", "owner": "Cameron County Housing Finance Corp", "total_units": 204, "year_built": 2022, "acquired": null, "lihtc": false, "units_est": false}}, {"type": "Feature", "geometry": {"type": "Point", "coordinates": [-96.814565, 32.75567]}, "properties": {"name": "The Cambridge Apartments", "address": "619 N Lancaster Ave", "owner": "Dallas Public Facility Corp", "total_units": 42, "year_built": 2024, "acquired": null, "lihtc": false, "units_est": false}}, {"type": "Feature", "geometry": {"type": "Point", "coordinates": [-96.810947, 32.758205]}, "properties": {"name": "Oakhouse Apartments", "address": "900 E Colorado Blvd", "owner": "Dallas Public Facility Corp", "total_units": 219, "year_built": 2024, "acquired": null, "lihtc": false, "units_est": false}}, {"type": "Feature", "geometry": {"type": "Point", "coordinates": [-96.83121, 32.74785]}, "properties": {"name": "South Apartments", "address": "520 W 8th St", "owner": "Dallas Public Facility Corp", "total_units": 13, "year_built": 2024, "acquired": null, "lihtc": false, "units_est": false}}, {"type": "Feature", "geometry": {"type": "Point", "coordinates": [-96.831032, 32.748345]}, "properties": {"name": "Apartments", "address": "519 W 8th St", "owner": "Dallas Public Facility Corp", "total_units": 12, "year_built": 2024, "acquired": null, "lihtc": false, "units_est": false}}, {"type": "Feature", "geometry": {"type": "Point", "coordinates": [-96.65822, 32.75004]}, "properties": {"name": "Sterlingshire Apartments", "address": "9415 Bruton Rd", "owner": "City Of Dallas Housing Finance Corp", "total_units": 264, "year_built": 2015, "acquired": null, "lihtc": false, "units_est": false}}, {"type": "Feature", "geometry": {"type": "Point", "coordinates": [-96.696128, 32.71075]}, "properties": {"name": "Murdeaux Villas", "address": "125 S Murdeaux Ln", "owner": "Garland Housing Finance Corp", "total_units": 301, "year_built": 2003, "acquired": null, "lihtc": true, "units_est": false}}, {"type": "Feature", "geometry": {"type": "Point", "coordinates": [-96.759309, 32.78616]}, "properties": {"name": "Gurley Place Senior Apartments", "address": "4538 Gurley Ave", "owner": "City Of Dallas Housing Finance Corp", "total_units": 24, "year_built": 2011, "acquired": null, "lihtc": false, "units_est": false}}, {"type": "Feature", "geometry": {"type": "Point", "coordinates": [-96.647285, 32.73257]}, "properties": {"name": "Lake June Village", "address": "1220 N Masters Dr", "owner": "Cameron County Housing Finance", "total_units": 100, "year_built": 1975, "acquired": null, "lihtc": false, "units_est": false}}, {"type": "Feature", "geometry": {"type": "Point", "coordinates": [-96.860427, 32.998551]}, "properties": {"name": "3301 President George Bush Tpke", "address": "3301 President George Bush Tpke", "owner": "Garland Housing Finance Corporation", "total_units": 380, "year_built": 2023, "acquired": null, "lihtc": false, "units_est": false}}]}