{"type": "FeatureCollection", "features": [{"type": "Feature", "geometry": {"type": "Point", "coordinates": [-96.74865, 32.8579]}, "properties": {"name": "Willow Pond (fka Glen Hills)", "address": "6003 Abrams Rd", "year": 1994, "total_units": 386, "lihtc_units": 386, "pop_served": "General", "program": "9%HTC"}}, {"type": "Feature", "geometry": {"type": "Point", "coordinates": [-96.86028, 33.01131]}, "properties": {"name": "The Fountains Of Rosemeade", "address": "3440 E Rosemeade Pkwy", "year": 1993, "total_units": 382, "lihtc_units": 379, "pop_served": "General", "program": "9%HTC"}}, {"type": "Feature", "geometry": {"type": "Point", "coordinates": [-96.75168, 32.74484]}, "properties": {"name": "The Culbreath", "address": "2770 Bethurum Ave.", "year": 2024, "total_units": 364, "lihtc_units": 327, "pop_served": "Elderly", "program": "4%HTC"}}, {"type": "Feature", "geometry": {"type": "Point", "coordinates": [-96.7858, 32.72954]}, "properties": {"name": "The Gateway at Trinity Forest", "address": "2050 Dowdy Ferry Rd", "year": 2025, "total_units": 330, "lihtc_units": 330, "pop_served": "General", "program": "4%HTC"}}, {"type": "Feature", "geometry": {"type": "Point", "coordinates": [-96.68647, 32.77958]}, "properties": {"name": "Skyline Place Apartments", "address": "4700 Wimbelton Way", "year": 2016, "total_units": 318, "lihtc_units": 318, "pop_served": "General", "program": "4%HTC"}}, {"type": "Feature", "geometry": {"type": "Point", "coordinates": [-96.7227, 32.79578]}, "properties": {"name": "Fairway Crossing Apartments", "address": "7229 Ferguson Rd", "year": 2007, "total_units": 310, "lihtc_units": 297, "pop_served": "General", "program": "9%HTC"}}, {"type": "Feature", "geometry": {"type": "Point", "coordinates": [-96.68394, 32.71898]}, "properties": {"name": "Palladium Buckner Station", "address": "8008 Elam Road", "year": 2025, "total_units": 304, "lihtc_units": 244, "pop_served": "General", "program": "4%HTC"}}, {"type": "Feature", "geometry": {"type": "Point", "coordinates": [-96.69559, 32.71213]}, "properties": {"name": "Murdeaux Villas Apartments", "address": "125 S. Murdeaux Lane", "year": 2021, "total_units": 301, "lihtc_units": 301, "pop_served": "General", "program": "4%HTC"}}, {"type": "Feature", "geometry": {"type": "Point", "coordinates": [-96.78819, 32.67345]}, "properties": {"name": "The Ridge at Lancaster", "address": "5703 S. Lancaster Rd.", "year": 2020, "total_units": 300, "lihtc_units": 270, "pop_served": "General", "program": "4%HTC"}}, {"type": "Feature", "geometry": {"type": "Point", "coordinates": [-96.76865, 32.67594]}, "properties": {"name": "The Terrace at Highland Hills", "address": "3100 Persimmon Rd", "year": 2023, "total_units": 300, "lihtc_units": 300, "pop_served": "General", "program": "4%HTC"}}, {"type": "Feature", "geometry": {"type": "Point", "coordinates": [-96.9173, 32.7569]}, "properties": {"name": "The Ridge at Loop 12", "address": "1200 N Walton Walker Blvd", "year": 2024, "total_units": 300, "lihtc_units": 300, "pop_served": "General", "program": "4%HTC"}}, {"type": "Feature", "geometry": {"type": "Point", "coordinates": [-96.88088, 32.65835]}, "properties": {"name": "Palladium Redbird", "address": "SEQ S. Westmoreland and W. Camp Wisom Road", "year": 2019, "total_units": 300, "lihtc_units": 210, "pop_served": "General", "program": "4%HTC"}}, {"type": "Feature", "geometry": {"type": "Point", "coordinates": [-96.76369, 32.675]}, "properties": {"name": "Estelle Village Apartments", "address": "5969 Highland Village Drive", "year": 2022, "total_units": 300, "lihtc_units": 300, "pop_served": "General", "program": "4%HTC"}}, {"type": "Feature", "geometry": {"type": "Point", "coordinates": [-96.87313, 32.65657]}, "properties": {"name": "Park @ Cliff Creek", "address": "7310 Marvin D Love Fwy", "year": 1995, "total_units": 280, "lihtc_units": 280, "pop_served": "General", "program": "9%HTC"}}, {"type": "Feature", "geometry": {"type": "Point", "coordinates": [-96.67087, 32.8083]}, "properties": {"name": "Rosemont at Ash Creek", "address": "2605 John West Rd", "year": 2023, "total_units": 280, "lihtc_units": 280, "pop_served": "General", "program": "4%HTC"}}, {"type": "Feature", "geometry": {"type": "Point", "coordinates": [-96.86783, 32.64425]}, "properties": {"name": "Rose Court at Thorntree", "address": "8501 Old Hickory Trl", "year": 2002, "total_units": 280, "lihtc_units": 280, "pop_served": "General", "program": "4%HTC"}}, {"type": "Feature", "geometry": {"type": "Point", "coordinates": [-96.86337, 32.71388]}, "properties": {"name": "Potter's House at Primrose", "address": "2515 Perryton Dr", "year": 2002, "total_units": 280, "lihtc_units": 280, "pop_served": "General", "program": "4%HTC"}}, {"type": "Feature", "geometry": {"type": "Point", "coordinates": [-96.78554, 32.81296]}, "properties": {"name": "Birchwood Apartments", "address": "4829 Coles Manor Pl", "year": 1996, "total_units": 276, "lihtc_units": 276, "pop_served": "General", "program": "9%HTC"}}, {"type": "Feature", "geometry": {"type": "Point", "coordinates": [-96.76296, 32.67195]}, "properties": {"name": "Palladium Simpson Stuart", "address": "3380 Simpson Stuart Road", "year": 2021, "total_units": 270, "lihtc_units": 257, "pop_served": "General", "program": "4%HTC"}}, {"type": "Feature", "geometry": {"type": "Point", "coordinates": [-96.59171, 32.67323]}, "properties": {"name": "The Crossing at Clear Creek", "address": "NEC of HWY 175 and Woody Rd", "year": 2023, "total_units": 264, "lihtc_units": 238, "pop_served": "General", "program": "4%HTC"}}, {"type": "Feature", "geometry": {"type": "Point", "coordinates": [-96.66671, 32.84311]}, "properties": {"name": "Estates at Shiloh", "address": "2649 Centerville Road", "year": 2019, "total_units": 264, "lihtc_units": 239, "pop_served": "Elderly", "program": "4%HTC"}}, {"type": "Feature", "geometry": {"type": "Point", "coordinates": [-96.6585, 32.74963]}, "properties": {"name": "Sterlingshire Apartment Homes", "address": "9415 Bruton Rd", "year": 2014, "total_units": 264, "lihtc_units": 264, "pop_served": "General", "program": "4%HTC"}}, {"type": "Feature", "geometry": {"type": "Point", "coordinates": [-96.74935, 32.7587]}, "properties": {"name": "Southern Terrace Apartments", "address": "4722 Meadow St", "year": 2003, "total_units": 264, "lihtc_units": 264, "pop_served": "General", "program": "4%HTC"}}, {"type": "Feature", "geometry": {"type": "Point", "coordinates": [-96.91185, 32.74138]}, "properties": {"name": "Preakness Ranch", "address": "5480 Preakness Ln", "year": 2003, "total_units": 264, "lihtc_units": 264, "pop_served": "General", "program": "4%HTC"}}, {"type": "Feature", "geometry": {"type": "Point", "coordinates": [-96.83112, 32.73985]}, "properties": {"name": "The Oaks", "address": "630 S. Llewellyn", "year": 2021, "total_units": 260, "lihtc_units": 243, "pop_served": "Elderly", "program": "4%HTC"}}, {"type": "Feature", "geometry": {"type": "Point", "coordinates": [-96.77352, 32.71952]}, "properties": {"name": "Southern Oaks Apartments", "address": "3303 Southern Oaks Boulevard", "year": 2002, "total_units": 256, "lihtc_units": 256, "pop_served": "General", "program": "4%HTC"}}, {"type": "Feature", "geometry": {"type": "Point", "coordinates": [-96.94533, 32.66728]}, "properties": {"name": "Rosemont at Bluff Ridge", "address": "8125 Clark Rd.", "year": 2002, "total_units": 256, "lihtc_units": 256, "pop_served": "General", "program": "4%HTC"}}, {"type": "Feature", "geometry": {"type": "Point", "coordinates": [-96.85358, 32.82273]}, "properties": {"name": "Providence Mockingbird", "address": "1853 W Mockingbird Ln", "year": 2005, "total_units": 251, "lihtc_units": 251, "pop_served": "General", "program": "4%HTC"}}, {"type": "Feature", "geometry": {"type": "Point", "coordinates": [-96.8778, 32.64412]}, "properties": {"name": "Parks at Rolling Hills", "address": "2400 Bolton Boone Dr.", "year": 2000, "total_units": 250, "lihtc_units": 250, "pop_served": "Elderly", "program": "4%HTC"}}, {"type": "Feature", "geometry": {"type": "Point", "coordinates": [-96.91841, 32.74251]}, "properties": {"name": "Ridgecrest Terrace Apartments", "address": "526 S. Walton Walker Blvd.", "year": 2020, "total_units": 250, "lihtc_units": 250, "pop_served": "General", "program": "4%HTC"}}, {"type": "Feature", "geometry": {"type": "Point", "coordinates": [-96.65203, 32.76302]}, "properties": {"name": "Rosemont at Scyene", "address": "9901 Scyene Rd", "year": 2004, "total_units": 250, "lihtc_units": 250, "pop_served": "General", "program": "4%HTC"}}, {"type": "Feature", "geometry": {"type": "Point", "coordinates": [-96.76918, 32.67047]}, "properties": {"name": "Homes of Pecan Grove", "address": "3131 Stuart-Simpson Road", "year": 2004, "total_units": 250, "lihtc_units": 250, "pop_served": "General", "program": "4%HTC"}}, {"type": "Feature", "geometry": {"type": "Point", "coordinates": [-96.81633, 32.66165]}, "properties": {"name": "Rosemont at Laureland", "address": "330 E Camp Wisdom Rd", "year": 2004, "total_units": 250, "lihtc_units": 250, "pop_served": "General", "program": "4%HTC"}}, {"type": "Feature", "geometry": {"type": "Point", "coordinates": [-96.87392, 32.71658]}, "properties": {"name": "Westmoreland Station", "address": "2700 S. Westmoreland", "year": 2021, "total_units": 248, "lihtc_units": 223, "pop_served": "General", "program": "4%HTC"}}, {"type": "Feature", "geometry": {"type": "Point", "coordinates": [-96.69951, 32.71248]}, "properties": {"name": "Torrington Forest", "address": "7100 Great Trinity Forest Way", "year": 2025, "total_units": 248, "lihtc_units": 248, "pop_served": "General", "program": "4%HTC"}}, {"type": "Feature", "geometry": {"type": "Point", "coordinates": [-96.76412, 32.69403]}, "properties": {"name": "The Villas Of Sorrento", "address": "3130 Stag Rd", "year": 1996, "total_units": 245, "lihtc_units": 245, "pop_served": "General", "program": "9%HTC"}}, {"type": "Feature", "geometry": {"type": "Point", "coordinates": [-96.8251, 32.6957]}, "properties": {"name": "Providence at Village Fair", "address": "5151 Village Fair Dr", "year": 2004, "total_units": 236, "lihtc_units": 236, "pop_served": "General", "program": "4%HTC"}}, {"type": "Feature", "geometry": {"type": "Point", "coordinates": [-96.71607, 32.71325]}, "properties": {"name": "Rosemont at Pemberton Hill", "address": "220 Stoneport Dr.", "year": 2001, "total_units": 236, "lihtc_units": 236, "pop_served": "General", "program": "4%HTC"}}, {"type": "Feature", "geometry": {"type": "Point", "coordinates": [-96.67247, 32.81011]}, "properties": {"name": "The Positano", "address": "2519 John West Rd", "year": 2023, "total_units": 232, "lihtc_units": 232, "pop_served": "Elderly", "program": "4%HTC"}}, {"type": "Feature", "geometry": {"type": "Point", "coordinates": [-96.82183, 32.74269]}, "properties": {"name": "Gateway Oak Cliff", "address": "400 S. Beckley Avenue", "year": 2021, "total_units": 230, "lihtc_units": 184, "pop_served": "General", "program": "4%HTC"}}, {"type": "Feature", "geometry": {"type": "Point", "coordinates": [-96.71605, 32.71433]}, "properties": {"name": "Las Lomas Apartments", "address": "6161 Trail Glen Dr", "year": 1996, "total_units": 230, "lihtc_units": 138, "pop_served": "General", "program": "9%HTC"}}, {"type": "Feature", "geometry": {"type": "Point", "coordinates": [-96.71557, 32.80235]}, "properties": {"name": "Enchanted Hills", "address": "7802 Villa Cliff Dr", "year": 1995, "total_units": 229, "lihtc_units": 229, "pop_served": "General", "program": "9%HTC"}}, {"type": "Feature", "geometry": {"type": "Point", "coordinates": [-96.75701, 32.67011]}, "properties": {"name": "Tabor Village (fka Baraboo Hills)", "address": "6200 Baraboo Drive", "year": 2025, "total_units": 229, "lihtc_units": 206, "pop_served": "Elderly", "program": "4%HTC"}}, {"type": "Feature", "geometry": {"type": "Point", "coordinates": [-96.76805, 32.77357]}, "properties": {"name": "Eban Village II Apartments", "address": "3011 Park Row Ave", "year": 1999, "total_units": 220, "lihtc_units": 165, "pop_served": "General", "program": "9%HTC"}}, {"type": "Feature", "geometry": {"type": "Point", "coordinates": [-96.82964, 32.72715]}, "properties": {"name": "Highpoint at Wynnewood", "address": "1910 Argentia Dr", "year": 2022, "total_units": 220, "lihtc_units": 220, "pop_served": "General", "program": "4%HTC"}}, {"type": "Feature", "geometry": {"type": "Point", "coordinates": [-96.75529, 32.93619]}, "properties": {"name": "Waterford at Goldmark", "address": "13695 Goldmark Drive", "year": 2024, "total_units": 220, "lihtc_units": 220, "pop_served": "Elderly", "program": "4%HTC"}}, {"type": "Feature", "geometry": {"type": "Point", "coordinates": [-96.88061, 32.67132]}, "properties": {"name": "Westmoreland Townhomes", "address": "6600 South Westmoreland Drive", "year": 2025, "total_units": 216, "lihtc_units": 216, "pop_served": "Elderly", "program": "4%HTC"}}, {"type": "Feature", "geometry": {"type": "Point", "coordinates": [-96.9084, 32.71672]}, "properties": {"name": "Residence at the Oaks", "address": "2740 Duncanville Rd.", "year": 1998, "total_units": 212, "lihtc_units": 212, "pop_served": "Elderly", "program": "4%HTC"}}, {"type": "Feature", "geometry": {"type": "Point", "coordinates": [-96.79299, 32.78732]}, "properties": {"name": "2400 Bryan", "address": "2400 Bryan Street", "year": 2018, "total_units": 212, "lihtc_units": 105, "pop_served": "General", "program": "9%HTC"}}, {"type": "Feature", "geometry": {"type": "Point", "coordinates": [-96.801, 32.78415]}, "properties": {"name": "City Walk at Akard", "address": "511 N Akard St", "year": 2007, "total_units": 209, "lihtc_units": 204, "pop_served": "General", "program": "9%HTC"}}, {"type": "Feature", "geometry": {"type": "Point", "coordinates": [-96.75902, 32.87275]}, "properties": {"name": "Junction Apartments", "address": "7111 Fair Oaks Ave", "year": 1990, "total_units": 208, "lihtc_units": 208, "pop_served": "General", "program": "9%HTC"}}, {"type": "Feature", "geometry": {"type": "Point", "coordinates": [-96.75392, 32.73745]}, "properties": {"name": "Buckeye Trail Commons", "address": "6707 Buckeye Commons Way", "year": 2011, "total_units": 207, "lihtc_units": 206, "pop_served": "General", "program": "4%HTC"}}, {"type": "Feature", "geometry": {"type": "Point", "coordinates": [-96.76037, 32.69852]}, "properties": {"name": "Oakwood Place Apartments", "address": "4950 Wadsworth Dr", "year": 1999, "total_units": 206, "lihtc_units": 155, "pop_served": "General", "program": "9%HTC"}}, {"type": "Feature", "geometry": {"type": "Point", "coordinates": [-96.88035, 32.65006]}, "properties": {"name": "West Virginia Apartments", "address": "8004 West Virginia Drive", "year": 2024, "total_units": 204, "lihtc_units": 204, "pop_served": "General", "program": "4%HTC"}}, {"type": "Feature", "geometry": {"type": "Point", "coordinates": [-96.67578, 32.77148]}, "properties": {"name": "Sphinx at Delafield", "address": "4101 Delafield Ln", "year": 2004, "total_units": 204, "lihtc_units": 204, "pop_served": "General", "program": "4%HTC"}}, {"type": "Feature", "geometry": {"type": "Point", "coordinates": [-96.6694, 32.84545]}, "properties": {"name": "Silver Gardens Apartments", "address": "2620 Ruidosa Avenue", "year": 2017, "total_units": 202, "lihtc_units": 202, "pop_served": "Elderly Preference", "program": "4%HTC"}}, {"type": "Feature", "geometry": {"type": "Point", "coordinates": [-96.75722, 32.93608]}, "properties": {"name": "Midpark Towers", "address": "8550 Midpark Road", "year": 2021, "total_units": 202, "lihtc_units": 202, "pop_served": "General", "program": "4%HTC"}}, {"type": "Feature", "geometry": {"type": "Point", "coordinates": [-96.98635, 32.73437]}, "properties": {"name": "The Homes of Mountain Creek", "address": "1350 Skyline Road", "year": 2005, "total_units": 200, "lihtc_units": 200, "pop_served": "General", "program": "4%HTC"}}, {"type": "Feature", "geometry": {"type": "Point", "coordinates": [-96.69978, 32.71808]}, "properties": {"name": "Pleasant Village", "address": "378 N Jim Miller Rd", "year": 2004, "total_units": 200, "lihtc_units": 200, "pop_served": "General", "program": "4%HTC"}}, {"type": "Feature", "geometry": {"type": "Point", "coordinates": [-96.9011, 32.7199]}, "properties": {"name": "HiLine Illinois", "address": "4710 W Illinois Ave", "year": 2025, "total_units": 200, "lihtc_units": 200, "pop_served": "General", "program": "4%HTC"}}, {"type": "Feature", "geometry": {"type": "Point", "coordinates": [-96.89267, 32.76372]}, "properties": {"name": "Churchill at Pinnacle Park", "address": "1411 N Cockrell Hill Rd", "year": 2004, "total_units": 200, "lihtc_units": 200, "pop_served": "General", "program": "4%HTC"}}, {"type": "Feature", "geometry": {"type": "Point", "coordinates": [-96.67055, 32.80728]}, "properties": {"name": "Treymore at LaPrada, The", "address": "2631 John West Rd", "year": 1999, "total_units": 196, "lihtc_units": 150, "pop_served": "General", "program": "9%HTC"}}, {"type": "Feature", "geometry": {"type": "Point", "coordinates": [-96.78893, 32.80005]}, "properties": {"name": "Roseland Townhomes", "address": "1949 N Washington Ave", "year": 1999, "total_units": 192, "lihtc_units": 144, "pop_served": "General", "program": "9%HTC"}}, {"type": "Feature", "geometry": {"type": "Point", "coordinates": [-96.75412, 32.93677]}, "properties": {"name": "The Tuscany at Goldmark", "address": "13731 Goldmark Dr", "year": 1997, "total_units": 184, "lihtc_units": 138, "pop_served": "Elderly", "program": "9%HTC"}}, {"type": "Feature", "geometry": {"type": "Point", "coordinates": [-96.76652, 32.6777]}, "properties": {"name": "Homes of Persimmon", "address": "3245 Simpson Stuart Rd", "year": 1998, "total_units": 180, "lihtc_units": 135, "pop_served": "General", "program": "9%HTC"}}, {"type": "Feature", "geometry": {"type": "Point", "coordinates": [-96.58669, 32.68785]}, "properties": {"name": "Meadowbrook", "address": "910 S. Belt Line Road", "year": 2021, "total_units": 180, "lihtc_units": 162, "pop_served": "General", "program": "4%HTC"}}, {"type": "Feature", "geometry": {"type": "Point", "coordinates": [-96.78707, 32.80247]}, "properties": {"name": "Treymore @ Cityplace Apartments", "address": "2101 N Haskell Ave", "year": 1995, "total_units": 180, "lihtc_units": 72, "pop_served": "General", "program": "9%HTC"}}, {"type": "Feature", "geometry": {"type": "Point", "coordinates": [-96.86575, 32.64732]}, "properties": {"name": "Hickory Trace", "address": "8410 S Westmoreland Rd", "year": 2002, "total_units": 180, "lihtc_units": 180, "pop_served": "General", "program": "4%HTC"}}, {"type": "Feature", "geometry": {"type": "Point", "coordinates": [-96.86208, 32.78512]}, "properties": {"name": "Village at Lakewest Apartments II", "address": "2680 Bickers St", "year": 2008, "total_units": 180, "lihtc_units": 180, "pop_served": "Elderly", "program": "4%HTC"}}, {"type": "Feature", "geometry": {"type": "Point", "coordinates": [-96.86288, 32.78542]}, "properties": {"name": "Village at Lakewest Apartments I", "address": "2696 Bickers St", "year": 2008, "total_units": 180, "lihtc_units": 180, "pop_served": "Elderly", "program": "4%HTC"}}, {"type": "Feature", "geometry": {"type": "Point", "coordinates": [-96.82548, 32.70252]}, "properties": {"name": "Madison Point Apartments", "address": "220 W Overton Rd", "year": 2002, "total_units": 176, "lihtc_units": 140, "pop_served": "General", "program": "9%HTC"}}, {"type": "Feature", "geometry": {"type": "Point", "coordinates": [-96.79966, 32.7458]}, "properties": {"name": "Fiji Lofts", "address": "301 S Corinth St. Rd.", "year": 2021, "total_units": 174, "lihtc_units": 174, "pop_served": "General", "program": "4%HTC"}}, {"type": "Feature", "geometry": {"type": "Point", "coordinates": [-96.66798, 32.8106]}, "properties": {"name": "Shiloh Village Apartments", "address": "8702 Shiloh Rd", "year": 2004, "total_units": 168, "lihtc_units": 168, "pop_served": "General", "program": "9%HTC"}}, {"type": "Feature", "geometry": {"type": "Point", "coordinates": [-96.7015, 32.91497]}, "properties": {"name": "Northgate Village Apartments", "address": "12303 North Plano Road", "year": 2019, "total_units": 168, "lihtc_units": 168, "pop_served": "General", "program": "4%HTC"}}, {"type": "Feature", "geometry": {"type": "Point", "coordinates": [-96.81523, 32.94368]}, "properties": {"name": "Cypress Creek Apartment Homes at Montfort Drive", "address": "NWC of Spring Valley and Montfort Drive", "year": 2022, "total_units": 168, "lihtc_units": 116, "pop_served": "General", "program": "9%HTC"}}, {"type": "Feature", "geometry": {"type": "Point", "coordinates": [-96.76272, 32.71312]}, "properties": {"name": "Royal Crest", "address": "3558 Wilhurt", "year": 2024, "total_units": 167, "lihtc_units": 167, "pop_served": "General", "program": "4%HTC"}}, {"type": "Feature", "geometry": {"type": "Point", "coordinates": [-96.69291, 32.81511]}, "properties": {"name": "Estates at Ferguson", "address": "9220 Ferguson Road", "year": 2023, "total_units": 164, "lihtc_units": 164, "pop_served": "Elderly", "program": "4%HTC"}}, {"type": "Feature", "geometry": {"type": "Point", "coordinates": [-96.79166, 32.77079]}, "properties": {"name": "1400 Belleview", "address": "1401 Browder St.", "year": 2012, "total_units": 164, "lihtc_units": 164, "pop_served": "General", "program": "9%HTC"}}, {"type": "Feature", "geometry": {"type": "Point", "coordinates": [-96.73357, 32.7927]}, "properties": {"name": "Tenison Lofts", "address": "3504 and 3602 Samuell Blvd and 3503 Merrifield Ave", "year": 2024, "total_units": 164, "lihtc_units": 164, "pop_served": "General", "program": "4%HTC"}}, {"type": "Feature", "geometry": {"type": "Point", "coordinates": [-96.87647, 32.75672]}, "properties": {"name": "Taylor Farms", "address": "1150 Pinnacle Par Blvd", "year": 2009, "total_units": 160, "lihtc_units": 144, "pop_served": "General", "program": "9%HTC"}}, {"type": "Feature", "geometry": {"type": "Point", "coordinates": [-96.81313, 32.7862]}, "properties": {"name": "Cabana Design District", "address": "899 Stemmons Fwy", "year": 2023, "total_units": 160, "lihtc_units": 64, "pop_served": "General", "program": "9%HTC"}}, {"type": "Feature", "geometry": {"type": "Point", "coordinates": [-96.82922, 32.72323]}, "properties": {"name": "HighPoint Family Living", "address": "414 W. Louisiana Avenue", "year": 2013, "total_units": 160, "lihtc_units": 160, "pop_served": "General", "program": "9%HTC"}}, {"type": "Feature", "geometry": {"type": "Point", "coordinates": [-96.86892, 32.82]}, "properties": {"name": "The Pegasus", "address": "7200 N Stemmons Fwy", "year": 2003, "total_units": 156, "lihtc_units": 124, "pop_served": "Elderly", "program": "9%HTC"}}, {"type": "Feature", "geometry": {"type": "Point", "coordinates": [-96.80517, 32.7806]}, "properties": {"name": "West End Lofts", "address": "805 Elm St", "year": 2024, "total_units": 154, "lihtc_units": 63, "pop_served": "General", "program": "9%HTC"}}, {"type": "Feature", "geometry": {"type": "Point", "coordinates": [-96.77158, 32.69508]}, "properties": {"name": "Rosemont of Oak Hollow", "address": "3015 E Ledbetter Dr", "year": 2001, "total_units": 153, "lihtc_units": 153, "pop_served": "General", "program": "4%HTC"}}, {"type": "Feature", "geometry": {"type": "Point", "coordinates": [-96.8714, 32.78572]}, "properties": {"name": "Lakewest Community Townhomes", "address": "3020 Bickers St.", "year": 2000, "total_units": 152, "lihtc_units": 152, "pop_served": "General", "program": "4%HTC"}}, {"type": "Feature", "geometry": {"type": "Point", "coordinates": [-96.8561, 32.77908]}, "properties": {"name": "Arbor Woods", "address": "3030 N. Hampton Road", "year": 2003, "total_units": 151, "lihtc_units": 120, "pop_served": "General", "program": "9%HTC"}}, {"type": "Feature", "geometry": {"type": "Point", "coordinates": [-96.73817, 32.78024]}, "properties": {"name": "Carpenter's Point", "address": "3326 Mingo St.", "year": 2008, "total_units": 150, "lihtc_units": 150, "pop_served": "Elderly", "program": "9%HTC"}}, {"type": "Feature", "geometry": {"type": "Point", "coordinates": [-96.71739, 32.80355]}, "properties": {"name": "The Mondello", "address": "2000 Highland Road", "year": 2023, "total_units": 150, "lihtc_units": 150, "pop_served": "Elderly", "program": "4%HTC"}}, {"type": "Feature", "geometry": {"type": "Point", "coordinates": [-96.65573, 32.74983]}, "properties": {"name": "St. Augustine Estates", "address": "2222 N Saint Augustine Dr", "year": 2005, "total_units": 150, "lihtc_units": 150, "pop_served": "Elderly", "program": "4%HTC"}}, {"type": "Feature", "geometry": {"type": "Point", "coordinates": [-96.64802, 32.7309]}, "properties": {"name": "The Masters Apartments", "address": "1180 N Masters Dr", "year": 2004, "total_units": 144, "lihtc_units": 144, "pop_served": "General", "program": "4%HTC"}}, {"type": "Feature", "geometry": {"type": "Point", "coordinates": [-96.75265, 32.80118]}, "properties": {"name": "Juliette Fowler Residences", "address": "230 S. Fulton Street", "year": 2020, "total_units": 144, "lihtc_units": 144, "pop_served": "Elderly", "program": "9%HTC"}}, {"type": "Feature", "geometry": {"type": "Point", "coordinates": [-96.82803, 32.72987]}, "properties": {"name": "Wynnewood Seniors Housing", "address": "1615 S Zang Blvd", "year": 2010, "total_units": 140, "lihtc_units": 140, "pop_served": "Elderly", "program": "9%HTC"}}, {"type": "Feature", "geometry": {"type": "Point", "coordinates": [-96.7903, 32.79728]}, "properties": {"name": "Roseland Estates", "address": "2021 N Washington Ave", "year": 2002, "total_units": 138, "lihtc_units": 104, "pop_served": "General", "program": "9%HTC"}}, {"type": "Feature", "geometry": {"type": "Point", "coordinates": [-96.76015, 32.87156]}, "properties": {"name": "Market Apartments", "address": "7001 Fair Oaks Ave", "year": 1990, "total_units": 131, "lihtc_units": 131, "pop_served": "General", "program": "9%HTC"}}, {"type": "Feature", "geometry": {"type": "Point", "coordinates": [-96.87233, 32.76403]}, "properties": {"name": "Villas at Remond", "address": "3050 Remond Dr", "year": 1998, "total_units": 131, "lihtc_units": 131, "pop_served": "Elderly", "program": "9%HTC"}}, {"type": "Feature", "geometry": {"type": "Point", "coordinates": [-96.80099, 32.7462]}, "properties": {"name": "Sphinx at Fiji Senior", "address": "201 Fran Way", "year": 2008, "total_units": 130, "lihtc_units": 130, "pop_served": "Elderly", "program": "9%HTC"}}, {"type": "Feature", "geometry": {"type": "Point", "coordinates": [-96.84428, 32.76655]}, "properties": {"name": "Villas at Western Heights", "address": "1501 and 1515 Fort Worth Avenue", "year": 2020, "total_units": 130, "lihtc_units": 104, "pop_served": "Elderly", "program": "9%HTC"}}, {"type": "Feature", "geometry": {"type": "Point", "coordinates": [-96.87635, 32.75368]}, "properties": {"name": "Hillside West Seniors", "address": "3757 Falls Bluff Dr", "year": 2010, "total_units": 130, "lihtc_units": 130, "pop_served": "Elderly", "program": "9%HTC"}}, {"type": "Feature", "geometry": {"type": "Point", "coordinates": [-96.79907, 32.78013]}, "properties": {"name": "The Magnolia", "address": "1401 Commerce Street", "year": 2025, "total_units": 130, "lihtc_units": 53, "pop_served": "General", "program": "9%HTC"}}, {"type": "Feature", "geometry": {"type": "Point", "coordinates": [-96.89028, 32.69975]}, "properties": {"name": "3606 S Cockrell Hill Road Senior Living", "address": "3606 and 3626 S Cockrell Hill Road", "year": 2024, "total_units": 120, "lihtc_units": 88, "pop_served": "Elderly", "program": "9%HTC"}}, {"type": "Feature", "geometry": {"type": "Point", "coordinates": [-96.89002, 32.66645]}, "properties": {"name": "Woodglen Park II (fka Red Bird Ridge)", "address": "6800 S Cockrell Hill Rd", "year": 1994, "total_units": 120, "lihtc_units": 120, "pop_served": "General", "program": "9%HTC"}}, {"type": "Feature", "geometry": {"type": "Point", "coordinates": [-96.88852, 32.70623]}, "properties": {"name": "Columbia Luxar Townhomes", "address": "3120 Guadalupe Ave", "year": 1997, "total_units": 120, "lihtc_units": 120, "pop_served": "General", "program": "9%HTC"}}, {"type": "Feature", "geometry": {"type": "Point", "coordinates": [-96.73783, 32.77453]}, "properties": {"name": "Wahoo Frazier Townhomes", "address": "4848 Hatcher St.", "year": 2005, "total_units": 118, "lihtc_units": 95, "pop_served": "General", "program": "9%HTC"}}, {"type": "Feature", "geometry": {"type": "Point", "coordinates": [-96.754, 32.73638]}, "properties": {"name": "Buckeye Trail Commons II", "address": "6707 Buckeye Commons Way", "year": 2011, "total_units": 116, "lihtc_units": 106, "pop_served": "General", "program": "4%HTC"}}, {"type": "Feature", "geometry": {"type": "Point", "coordinates": [-96.73792, 32.77591]}, "properties": {"name": "Mill City Parc Apartments", "address": "4848 Hatcher Street", "year": 2006, "total_units": 116, "lihtc_units": 116, "pop_served": "General", "program": "4%HTC"}}, {"type": "Feature", "geometry": {"type": "Point", "coordinates": [-96.77174, 32.80772]}, "properties": {"name": "Paradise Gardens", "address": "1500 N Garrett Avenue", "year": 2024, "total_units": 113, "lihtc_units": 113, "pop_served": "Elderly", "program": "4%HTC"}}, {"type": "Feature", "geometry": {"type": "Point", "coordinates": [-96.88952, 32.66661]}, "properties": {"name": "Woodglen Park Apartments", "address": "6800 S Cockrell Hill Rd", "year": 1993, "total_units": 112, "lihtc_units": 112, "pop_served": "General", "program": "9%HTC"}}, {"type": "Feature", "geometry": {"type": "Point", "coordinates": [-96.78728, 32.66913]}, "properties": {"name": "Magnolia Trace", "address": "6712 Patrol Way", "year": 2009, "total_units": 112, "lihtc_units": 112, "pop_served": "Elderly", "program": "9%HTC"}}, {"type": "Feature", "geometry": {"type": "Point", "coordinates": [-96.77018, 32.77262]}, "properties": {"name": "Eban Village I Apartments", "address": "2710 Jeffries St", "year": 1995, "total_units": 110, "lihtc_units": 110, "pop_served": "General", "program": "9%HTC"}}, {"type": "Feature", "geometry": {"type": "Point", "coordinates": [-96.78369, 32.72259]}, "properties": {"name": "Skyline at Cedar Crest", "address": "2720 East Kiest Blvd", "year": 2021, "total_units": 107, "lihtc_units": 85, "pop_served": "General", "program": "9%HTC"}}, {"type": "Feature", "geometry": {"type": "Point", "coordinates": [-96.79452, 32.77978]}, "properties": {"name": "Atmos Lofts", "address": "300 S St Paul St", "year": 2010, "total_units": 107, "lihtc_units": 107, "pop_served": "General", "program": "9%HTC"}}, {"type": "Feature", "geometry": {"type": "Point", "coordinates": [-96.78843, 32.79998]}, "properties": {"name": "Roseland Gardens", "address": "2255 N. Washington Ave.", "year": 2001, "total_units": 101, "lihtc_units": 100, "pop_served": "Elderly", "program": "4%HTC"}}, {"type": "Feature", "geometry": {"type": "Point", "coordinates": [-96.82538, 32.82187]}, "properties": {"name": "Martha's Vineyard Place", "address": "3110 Cedarplaza Ln", "year": 2015, "total_units": 100, "lihtc_units": 85, "pop_served": "General", "program": "4%HTC"}}, {"type": "Feature", "geometry": {"type": "Point", "coordinates": [-96.79744, 32.7117]}, "properties": {"name": "Saint James Manor", "address": "3119 Easter Ave", "year": 2016, "total_units": 100, "lihtc_units": 100, "pop_served": "General", "program": "4%HTC"}}, {"type": "Feature", "geometry": {"type": "Point", "coordinates": [-96.89112, 32.70702]}, "properties": {"name": "Sphinx at Luxar", "address": "3110 S Cockrell Hill Rd", "year": 2005, "total_units": 100, "lihtc_units": 96, "pop_served": "General", "program": "9%HTC"}}, {"type": "Feature", "geometry": {"type": "Point", "coordinates": [-96.83572, 32.64043]}, "properties": {"name": "Rosemont at Timbercreek", "address": "801 Beckleymeade Avenue", "year": 2001, "total_units": 100, "lihtc_units": 100, "pop_served": "General", "program": "9%HTC"}}, {"type": "Feature", "geometry": {"type": "Point", "coordinates": [-96.77839, 32.71377]}, "properties": {"name": "Peoples El Shaddai Village", "address": "2836 E. Overton Road", "year": 2016, "total_units": 100, "lihtc_units": 100, "pop_served": "General", "program": "4%HTC"}}, {"type": "Feature", "geometry": {"type": "Point", "coordinates": [-96.85325, 32.81642]}, "properties": {"name": "Rosemont at Arlington Park", "address": "1716 Chattanooga Place", "year": 2000, "total_units": 100, "lihtc_units": 75, "pop_served": "General", "program": "9%HTC"}}, {"type": "Feature", "geometry": {"type": "Point", "coordinates": [-96.77246, 32.92333]}, "properties": {"name": "Summit Place", "address": "12777 Merit Drive", "year": 2013, "total_units": 98, "lihtc_units": 75, "pop_served": "General", "program": "9%HTC"}}, {"type": "Feature", "geometry": {"type": "Point", "coordinates": [-96.94614, 32.64657]}, "properties": {"name": "The James at Wheatland", "address": "7100 W Wheatland Rd.", "year": 2025, "total_units": 90, "lihtc_units": 81, "pop_served": "General", "program": "9%HTC"}}, {"type": "Feature", "geometry": {"type": "Point", "coordinates": [-96.89748, 32.8856]}, "properties": {"name": "Dallas Stemmons Apartments", "address": "11070 North Stemmons Freeway", "year": 2020, "total_units": 87, "lihtc_units": 85, "pop_served": "General", "program": "9%HTC"}}, {"type": "Feature", "geometry": {"type": "Point", "coordinates": [-96.76332, 32.79291]}, "properties": {"name": "Kiva East", "address": "SWQ East Side Ave and S Fitzhugh Ave", "year": 2021, "total_units": 87, "lihtc_units": 71, "pop_served": "General", "program": "9%HTC"}}, {"type": "Feature", "geometry": {"type": "Point", "coordinates": [-96.83649, 32.82284]}, "properties": {"name": "Oaklawn Place", "address": "5717-5725 Sadler Circle", "year": 2021, "total_units": 84, "lihtc_units": 84, "pop_served": "Elderly", "program": "9%HTC"}}, {"type": "Feature", "geometry": {"type": "Point", "coordinates": [-96.81178, 32.73478]}, "properties": {"name": "Sphinx At Reese Court", "address": "1201 S Ewing Ave", "year": 2005, "total_units": 80, "lihtc_units": 80, "pop_served": "General", "program": "9%HTC"}}, {"type": "Feature", "geometry": {"type": "Point", "coordinates": [-96.81233, 32.74013]}, "properties": {"name": "Ewing Villas", "address": "811 S. Morrell Avenue", "year": 2001, "total_units": 80, "lihtc_units": 60, "pop_served": "General", "program": "9%HTC"}}, {"type": "Feature", "geometry": {"type": "Point", "coordinates": [-96.7805, 32.71708]}, "properties": {"name": "Pythian Manor", "address": "2719 East Illinois Avenue", "year": 2019, "total_units": 76, "lihtc_units": 76, "pop_served": "Elderly", "program": "4%HTC"}}, {"type": "Feature", "geometry": {"type": "Point", "coordinates": [-96.73775, 32.77522]}, "properties": {"name": "Frazier Fellowship", "address": "4848 Hatcher Street", "year": 2004, "total_units": 76, "lihtc_units": 60, "pop_served": "General", "program": "9%HTC"}}, {"type": "Feature", "geometry": {"type": "Point", "coordinates": [-96.76629, 32.88711]}, "properties": {"name": "The Meadow", "address": "8130 Meadow Rd", "year": 2025, "total_units": 75, "lihtc_units": 75, "pop_served": "Supportive Housing", "program": "9%HTC"}}, {"type": "Feature", "geometry": {"type": "Point", "coordinates": [-96.6562, 32.75293]}, "properties": {"name": "Crestshire Village", "address": "2314 N St Augustine Drive", "year": 2009, "total_units": 74, "lihtc_units": 74, "pop_served": "General", "program": "9%HTC"}}, {"type": "Feature", "geometry": {"type": "Point", "coordinates": [-96.65622, 32.76823]}, "properties": {"name": "Prairie Commons", "address": "9850 Military Parkway", "year": 2002, "total_units": 72, "lihtc_units": 72, "pop_served": "General", "program": "9%HTC"}}, {"type": "Feature", "geometry": {"type": "Point", "coordinates": [-96.78207, 32.80729]}, "properties": {"name": "Jaipur Lofts", "address": "Annex Avenue and Cabell Drive", "year": 2022, "total_units": 71, "lihtc_units": 71, "pop_served": "General", "program": "9%HTC"}}, {"type": "Feature", "geometry": {"type": "Point", "coordinates": [-96.78247, 32.80427]}, "properties": {"name": "Carroll Townhomes", "address": "1917 N. Carroll Ave.", "year": 2000, "total_units": 71, "lihtc_units": 71, "pop_served": "General", "program": "4%HTC"}}, {"type": "Feature", "geometry": {"type": "Point", "coordinates": [-96.78812, 32.80444]}, "properties": {"name": "Treymore North Apartments-CityPlace II", "address": "4144 Office Pkwy", "year": 1996, "total_units": 70, "lihtc_units": 52, "pop_served": "General", "program": "9%HTC"}}, {"type": "Feature", "geometry": {"type": "Point", "coordinates": [-96.78098, 32.80743]}, "properties": {"name": "Monarch Townhomes", "address": "2008 Kirby St.", "year": 2000, "total_units": 65, "lihtc_units": 65, "pop_served": "General", "program": "4%HTC"}}, {"type": "Feature", "geometry": {"type": "Point", "coordinates": [-96.81547, 32.75787]}, "properties": {"name": "Hillcrest House", "address": "834 N Marsalis Ave", "year": 1994, "total_units": 64, "lihtc_units": 64, "pop_served": "General", "program": "9%HTC"}}, {"type": "Feature", "geometry": {"type": "Point", "coordinates": [-96.66237, 32.69333]}, "properties": {"name": "Hacienda Del Sol", "address": "9200 Mountain Cabin Rd.", "year": 2009, "total_units": 55, "lihtc_units": 55, "pop_served": "General", "program": "9%HTC"}}, {"type": "Feature", "geometry": {"type": "Point", "coordinates": [-96.8036, 32.70811]}, "properties": {"name": "Serenity Place Apartments", "address": "3124 South Denley Drive", "year": 2014, "total_units": 45, "lihtc_units": 45, "pop_served": "Supportive Housing", "program": "9%HTC"}}, {"type": "Feature", "geometry": {"type": "Point", "coordinates": [-96.77757, 32.76342]}, "properties": {"name": "South Boulevard Retirement Center", "address": "1811/1821 South Blvd.", "year": 1999, "total_units": 30, "lihtc_units": 30, "pop_served": "Elderly", "program": "9%HTC"}}, {"type": "Feature", "geometry": {"type": "Point", "coordinates": [-96.81169, 32.73427]}, "properties": {"name": "Sphinx At Reese Court", "address": "1201 Ewing Ave.", "year": 2008, "total_units": 0, "lihtc_units": 0, "pop_served": "General", "program": "9%HTC"}}, {"type": "Feature", "geometry": {"type": "Point", "coordinates": [-96.89109, 32.70822]}, "properties": {"name": "Sphinx at Luxar", "address": "3110 Cockrell Hill Rd.", "year": 2008, "total_units": 0, "lihtc_units": 0, "pop_served": "General", "program": "9%HTC"}}, {"type": "Feature", "geometry": {"type": "Point", "coordinates": [-96.73695, 32.7746]}, "properties": {"name": "Wahoo Frazier Townhomes", "address": "E. Side of Blks 4700-4900 Hatcher St.", "year": 2008, "total_units": 0, "lihtc_units": 0, "pop_served": "General", "program": "9%HTC"}}, {"type": "Feature", "geometry": {"type": "Point", "coordinates": [-96.66949, 32.81175]}, "properties": {"name": "Shiloh Village", "address": "8702 Shiloh Rd", "year": 2020, "total_units": 0, "lihtc_units": 0, "pop_served": "General", "program": "4%HTC"}}, {"type": "Feature", "geometry": {"type": "Point", "coordinates": [-96.717, 32.80381]}, "properties": {"name": "Primrose at Highland", "address": "2000 Highland Rd", "year": 2007, "total_units": 0, "lihtc_units": 0, "pop_served": "Elderly", "program": "9%HTC"}}, {"type": "Feature", "geometry": {"type": "Point", "coordinates": [-96.73828, 32.77537]}, "properties": {"name": "Frazier Fellowship", "address": "4848 Hatcher Street", "year": 2007, "total_units": 0, "lihtc_units": 0, "pop_served": "General", "program": "9%HTC"}}, {"type": "Feature", "geometry": {"type": "Point", "coordinates": [-96.87783, 32.64975]}, "properties": {"name": "West Virginia Apartments", "address": "8004 W Virginia Dr", "year": 2003, "total_units": 0, "lihtc_units": 0, "pop_served": "General", "program": "4%HTC"}}, {"type": "Feature", "geometry": {"type": "Point", "coordinates": [-96.67303, 32.80892]}, "properties": {"name": "Ash Creek Apartments", "address": "2605 John West Road", "year": 2003, "total_units": 0, "lihtc_units": 0, "pop_served": "General", "program": "4%HTC"}}, {"type": "Feature", "geometry": {"type": "Point", "coordinates": [-96.89078, 32.68827]}, "properties": {"name": "Woodglen Park Apartments", "address": "6800 S Cockrell Hill Rd", "year": 2012, "total_units": 0, "lihtc_units": 0, "pop_served": "General", "program": "4%HTC"}}, {"type": "Feature", "geometry": {"type": "Point", "coordinates": [-96.67318, 32.80768]}, "properties": {"name": "Cherrycrest Villas", "address": "2519 John West Rd", "year": 2004, "total_units": 0, "lihtc_units": 0, "pop_served": "Elderly", "program": "4%HTC"}}, {"type": "Feature", "geometry": {"type": "Point", "coordinates": [-96.77002, 32.6708]}, "properties": {"name": "Pecan Grove Townhomes", "address": "3131 Stuart-Simpson Road", "year": 2013, "total_units": 0, "lihtc_units": 0, "pop_served": "General", "program": "4%HTC"}}, {"type": "Feature", "geometry": {"type": "Point", "coordinates": [-96.71497, 32.80223]}, "properties": {"name": "Primrose at Highland", "address": "2000 Highland Rd", "year": 2004, "total_units": 0, "lihtc_units": 0, "pop_served": "Elderly", "program": "9%HTC"}}, {"type": "Feature", "geometry": {"type": "Point", "coordinates": [-96.75462, 32.93632]}, "properties": {"name": "The Waterford At Goldmark", "address": "13695 Goldmark Dr", "year": 1995, "total_units": 0, "lihtc_units": 0, "pop_served": "General", "program": "9%HTC"}}, {"type": "Feature", "geometry": {"type": "Point", "coordinates": [-96.82907, 32.72522]}, "properties": {"name": "Parks At Wynnewood Apartments, The", "address": "1910 Argentia Dr", "year": 1995, "total_units": 0, "lihtc_units": 0, "pop_served": "General", "program": "9%HTC"}}, {"type": "Feature", "geometry": {"type": "Point", "coordinates": [-96.71357, 32.71357]}, "properties": {"name": "Riverstation Apartments", "address": "220 Stoneport Dr", "year": 2021, "total_units": 0, "lihtc_units": 0, "pop_served": "General", "program": "4%HTC"}}, {"type": "Feature", "geometry": {"type": "Point", "coordinates": [-96.6942, 32.7117]}, "properties": {"name": "Murdeaux Villas", "address": "125 S. Murdeaux", "year": 2002, "total_units": 0, "lihtc_units": 0, "pop_served": "General", "program": "4%HTC"}}]}